ONEWEB-0580             
1 54648U 22166G   25068.76604945  .00000132  00000+0  28903-3 0  9996
2 54648  87.9348 336.5652 0001614  93.1569 266.9750 13.21825908110199
ONEWEB-0582             
1 54649U 22166H   25068.80862818 -.00000064  00000+0 -18605-3 0  9991
2 54649  87.9326 336.5806 0001512  98.6951 261.4355 13.21825210110174
ONEWEB-0583             
1 54650U 22166J   25068.74397187  .00000028  00000+0  37014-4 0  9992
2 54650  87.9342 336.5944 0001805  83.5966 276.5374 13.21825919110175
ONEWEB-0584             
1 54651U 22166K   25068.76447281  .00000066  00000+0  12914-3 0  9999
2 54651  87.9347 336.5696 0001485  90.7756 269.3548 13.21825308110160
ONEWEB-0585             
1 54652U 22166L   25068.78970031  .00000000  00000+0 -31932-4 0  9997
2 54652  87.9337 336.5628 0001813  75.9213 284.2122 13.21825040110643
ONEWEB-0586             
1 54653U 22166M   25068.80231884 -.00000065  00000+0 -18766-3 0  9998
2 54653  87.9341 336.5751 0001747  85.4928 274.6405 13.21827032110179
ONEWEB-0587             
1 54654U 22166N   25068.81178140 -.00000034  00000+0 -11407-3 0  9996
2 54654  87.9341 336.5240 0001870  72.4322 287.7016 13.21826379110338
